NORAD_CAT_ID,OBJECT_NAME,OBJECT_TYPE,EPOCH,MEAN_MOTION,ECCENTRICITY,INCLINATION,RA_OF_ASC_NODE,ARG_OF_PERICENTER,MEAN_ANOMALY,BSTAR,MEAN_MOTION_DOT,MEAN_MOTION_DDOT,TLE_LINE0,TLE_LINE1,TLE_LINE2,SEMIMAJOR_AXIS,PERIOD,APOGEE,PERIGEE,DECAYED
53151.0,STARLINK-4040,PAYLOAD,2023-06-19 16:04:23,15.08849757,9.26e-05,53.2166,306.4525,111.7727,248.3364,0.0004269,6.515e-05,0.0,0 STARLINK-4040,1 53151U 22083V   23170.66971194  .00006515  00000-0  42690-3 0  9997,2 53151  53.2166 306.4525 0000926 111.7727 248.3364 15.08849757 51929,6917.851,95.437,540.356,539.075,0.0
53151.0,STARLINK-4040,PAYLOAD,2023-06-20 09:33:37,15.08837951,0.0001181,53.2178,303.185,113.834,246.2776,-0.00010709,-1.992e-05,0.0,0 STARLINK-4040,1 53151U 22083V   23171.39835269 -.00001992  00000-0 -10709-3 0  9992,2 53151  53.2178 303.1850 0001181 113.8340 246.2776 15.08837951 52035,6917.887,95.438,540.569,538.935,0.0
53151.0,STARLINK-4040,PAYLOAD,2023-06-20 11:09:00,15.08834645,9.51e-05,53.2161,302.8853,112.487,247.6223,-0.00015845,-2.808e-05,0.0,0 STARLINK-4040,1 53151U 22083V   23171.46459471 -.00002808  00000-0 -15845-3 0  9990,2 53151  53.2161 302.8853 0000951 112.4870 247.6223 15.08834645 51413,6917.897,95.438,540.42,539.104,0.0
53151.0,STARLINK-4040,PAYLOAD,2023-06-20 15:55:10,15.08843979,8.22e-05,53.2165,301.9926,98.8106,261.2979,1.7378e-05,-1.1e-07,0.0,0 STARLINK-4040,1 53151U 22083V   23171.66331098 -.00000011  00000-0  17378-4 0  9993,2 53151  53.2165 301.9926 0000822  98.8106 261.2979 15.08843979 51447,6917.868,95.437,540.302,539.165,0.0
53151.0,STARLINK-4040,PAYLOAD,2023-06-21 12:35:11,15.08840677,7.95e-05,53.216,298.1278,102.3788,257.7293,6.4688e-05,7.42e-06,0.0,0 STARLINK-4040,1 53151U 22083V   23172.52443366  .00000742  00000-0  64688-4 0  9997,2 53151  53.2160 298.1278 0000795 102.3788 257.7293 15.08840677 52201,6917.878,95.438,540.293,539.193,0.0
53151.0,STARLINK-4040,PAYLOAD,2023-06-21 14:10:34,15.08843298,8.25e-05,53.2155,297.8312,102.2659,257.8426,0.00012977,1.778e-05,0.0,0 STARLINK-4040,1 53151U 22083V   23172.59067300  .00001778  00000-0  12977-3 0  9997,2 53151  53.2155 297.8312 0000825 102.2659 257.8426 15.08843298 51581,6917.87,95.437,540.306,539.165,0.0
53151.0,STARLINK-4040,PAYLOAD,2023-06-21 18:56:43,15.08848227,7.91e-05,53.2159,296.9382,99.0148,261.0934,0.00023496,3.454e-05,0.0,0 STARLINK-4040,1 53151U 22083V   23172.78939146  .00003454  00000-0  23496-3 0  9995,2 53151  53.2159 296.9382 0000791  99.0148 261.0934 15.08848227 51612,6917.855,95.437,540.267,539.173,0.0
53151.0,STARLINK-4040,PAYLOAD,2023-06-22 02:53:39,15.08830824,8.34e-05,53.2161,295.4509,110.0799,250.0283,-0.00010075,-1.89e-05,0.0,0 STARLINK-4040,1 53151U 22083V   23173.12059672 -.00001890  00000-0 -10075-3 0  9994,2 53151  53.2161 295.4509 0000834 110.0799 250.0283 15.08830824 52298,6917.908,95.438,540.35,539.196,0.0
53151.0,STARLINK-4040,PAYLOAD,2023-06-22 17:12:07,15.08845406,7.67e-05,53.216,292.7747,97.3455,262.7625,0.00022791,3.342e-05,0.0,0 STARLINK-4040,1 53151U 22083V   23173.71675428  .00003342  00000-0  22791-3 0  9992,2 53151  53.2160 292.7747 0000767  97.3455 262.7625 15.08845406 52384,6917.864,95.437,540.259,539.198,0.0
53151.0,STARLINK-4040,PAYLOAD,2023-06-24 00:59:49,15.08848064,8.62e-05,53.215,286.8245,110.113,249.9955,0.0002365,3.479e-05,0.0,0 STARLINK-4040,1 53151U 22083V   23175.04155076  .00003479  00000-0  23650-3 0  9998,2 53151  53.2150 286.8245 0000862 110.1130 249.9955 15.08848064 52588,6917.856,95.437,540.317,539.124,0.0
53151.0,STARLINK-4040,PAYLOAD,2023-06-24 13:42:55,15.08839443,8.65e-05,53.2163,284.4486,88.7811,271.328,0.00010032,1.309e-05,0.0,0 STARLINK-4040,1 53151U 22083V   23175.57147680  .00001309  00000-0  10032-3 0  9998,2 53151  53.2163 284.4486 0000865  88.7811 271.3280 15.08839443 52662,6917.882,95.438,540.345,539.149,0.0
53151.0,STARLINK-4040,PAYLOAD,2023-06-25 16:44:28,15.08848357,0.0001007,53.2156,279.3917,93.9195,266.1912,0.00013861,1.919e-05,0.0,0 STARLINK-4040,1 53151U 22083V   23176.69755185  .00001919  00000-0  13861-3 0  9997,2 53151  53.2156 279.3917 0001007  93.9195 266.1912 15.08848357 52835,6917.855,95.437,540.416,539.023,0.0
53151.0,STARLINK-4040,PAYLOAD,2023-06-26 10:13:44,15.08832495,8.79e-05,53.2157,276.1221,91.6362,268.4731,0.00010196,1.335e-05,0.0,0 STARLINK-4040,1 53151U 22083V   23177.42620394  .00001335  00000-0  10196-3 0  9992,2 53151  53.2157 276.1221 0000879  91.6362 268.4731 15.08832495 52948,6917.903,95.438,540.376,539.16,0.0
53151.0,STARLINK-4040,PAYLOAD,2023-06-27 13:15:17,15.08847388,9.43e-05,53.2159,271.0669,97.2111,262.8988,0.00032908,4.954e-05,0.0,0 STARLINK-4040,1 53151U 22083V   23178.55228099  .00004954  00000-0  32908-3 0  9998,2 53151  53.2159 271.0669 0000943  97.2111 262.8988 15.08847388 53115,6917.858,95.437,540.375,539.07,0.0
53151.0,STARLINK-4040,PAYLOAD,2023-06-28 05:09:08,15.08840593,9.54e-05,53.2153,268.0941,100.895,259.2149,0.00014526,2.025e-05,0.0,0 STARLINK-4040,1 53151U 22083V   23179.21468344  .00002025  00000-0  14526-3 0  9994,2 53151  53.2153 268.0941 0000954 100.8950 259.2149 15.08840593 53213,6917.879,95.438,540.404,539.084,0.0
53151.0,STARLINK-4040,PAYLOAD,2023-06-29 11:21:28,15.08839371,8.44e-05,53.2154,262.4438,98.3322,261.7765,-9.788e-07,-3.03e-06,0.0,0 STARLINK-4040,1 53151U 22083V   23180.47324281 -.00000303  00000-0 -97880-6 0  9991,2 53151  53.2154 262.4438 0000844  98.3322 261.7765 15.08839371 53400,6917.882,95.438,540.331,539.163,0.0
53151.0,STARLINK-4040,PAYLOAD,2023-06-30 12:47:37,15.08850683,8.47e-05,53.2157,257.6854,87.9574,272.1515,0.00018371,2.638e-05,0.0,0 STARLINK-4040,1 53151U 22083V   23181.53307754  .00002638  00000-0  18371-3 0  9991,2 53151  53.2157 257.6854 0000847  87.9574 272.1515 15.08850683 53562,6917.848,95.437,540.299,539.127,0.0
53151.0,STARLINK-4040,PAYLOAD,2023-06-30 22:19:57,15.08842884,9.34e-05,53.2146,255.9042,67.7505,292.3586,5.1968e-05,5.39e-06,0.0,0 STARLINK-4040,1 53151U 22083V   23181.93052161  .00000539  00000-0  51968-4 0  9992,2 53151  53.2146 255.9042 0000934  67.7505 292.3586 15.08842884 53620,6917.872,95.437,540.383,539.09,0.0
53151.0,STARLINK-4040,PAYLOAD,2023-07-01 09:27:39,15.08830107,0.0001049,53.2155,253.8198,75.2497,284.8611,-1.0805e-05,-4.6e-06,0.0,0 STARLINK-4040,1 53151U 22083V   23182.39421095 -.00000460  00000-0 -10805-4 0  9999,2 53151  53.2155 253.8198 0001049  75.2497 284.8611 15.08830107 53698,6917.911,95.438,540.501,539.05,0.0
53151.0,STARLINK-4040,PAYLOAD,2023-07-01 23:46:07,15.08838361,8.14e-05,53.2157,251.1415,83.0897,277.0187,5.1569e-05,5.33e-06,0.0,0 STARLINK-4040,1 53151U 22083V   23182.99036932  .00000533  00000-0  51569-4 0  9998,2 53151  53.2157 251.1415 0000814  83.0897 277.0187 15.08838361 53785,6917.885,95.438,540.314,539.187,0.0
53151.0,STARLINK-4040,PAYLOAD,2023-07-02 14:04:35,15.08847374,9.02e-05,53.2151,248.4664,75.3396,284.7696,0.00013594,1.877e-05,0.0,0 STARLINK-4040,1 53151U 22083V   23183.58652505  .00001877  00000-0  13594-3 0  9991,2 53151  53.2151 248.4664 0000902  75.3396 284.7696 15.08847374 53874,6917.858,95.437,540.347,539.099,0.0
53151.0,STARLINK-4040,PAYLOAD,2023-07-04 10:35:23,15.0884103,9.49e-05,53.2145,240.1401,64.2685,295.8405,3.7616e-06,-2.28e-06,0.0,0 STARLINK-4040,1 53151U 22083V   23185.44124569 -.00000228  00000-0  37616-5 0  9995,2 53151  53.2145 240.1401 0000949  64.2685 295.8405 15.08841030 54150,6917.877,95.437,540.399,539.086,0.0
53151.0,STARLINK-4040,PAYLOAD,2023-07-05 12:01:33,15.08844242,9.7e-05,53.2147,235.3825,62.9068,297.2023,6.2327e-05,7.04e-06,0.0,0 STARLINK-4040,1 53151U 22083V   23186.50108443  .00000704  00000-0  62327-4 0  9990,2 53151  53.2147 235.3825 0000970  62.9068 297.2023 15.08844242 54310,6917.867,95.437,540.403,539.061,0.0
53151.0,STARLINK-4040,PAYLOAD,2023-07-06 10:16:58,15.08838145,9.83e-05,53.2145,231.2195,64.972,295.1374,0.00012711,1.736e-05,0.0,0 STARLINK-4040,1 53151U 22083V   23187.42844987  .00001736  00000-0  12711-3 0  9999,2 53151  53.2145 231.2195 0000983  64.9720 295.1374 15.08838145 54450,6917.886,95.438,540.431,539.071,0.0
53151.0,STARLINK-4040,PAYLOAD,2023-07-07 11:43:07,15.0884714,0.0001004,53.2145,226.4619,70.0912,290.0188,0.00017405,2.484e-05,0.0,0 STARLINK-4040,1 53151U 22083V   23188.48828621  .00002484  00000-0  17405-3 0  9999,2 53151  53.2145 226.4619 0001004  70.0912 290.0188 15.08847140 54613,6917.859,95.437,540.418,539.029,0.0
53151.0,STARLINK-4040,PAYLOAD,2023-07-07 19:40:03,15.08842116,0.0001009,53.2147,224.9752,73.5948,286.5155,0.00011161,1.489e-05,0.0,0 STARLINK-4040,1 53151U 22083V   23188.81948849  .00001489  00000-0  11161-3 0  9998,2 53151  53.2147 224.9752 0001009  73.5948 286.5155 15.08842116 54665,6917.874,95.437,540.437,539.041,0.0
53151.0,STARLINK-4040,PAYLOAD,2023-07-08 19:30:51,15.08838272,9.89e-05,53.2146,220.5141,74.6134,285.4967,4.1921e-05,3.79e-06,0.0,0 STARLINK-4040,1 53151U 22083V   23189.81309132  .00000379  00000-0  41921-4 0  9990,2 53151  53.2146 220.5141 0000989  74.6134 285.4967 15.08838272 54817,6917.886,95.438,540.435,539.066,0.0
53151.0,STARLINK-4040,PAYLOAD,2023-07-10 01:43:11,15.0883744,0.0001006,53.2153,214.8646,74.3121,285.7982,7.4261e-05,8.94e-06,0.0,0 STARLINK-4040,1 53151U 22083V   23191.07165514  .00000894  00000-0  74261-4 0  9990,2 53151  53.2153 214.8646 0001006  74.3121 285.7982 15.08837440 55003,6917.888,95.438,540.449,539.057,0.0
53151.0,STARLINK-4040,PAYLOAD,2023-07-11 07:55:30,15.08842097,0.0001034,53.2154,209.2144,73.6977,286.4129,0.00013829,1.914e-05,0.0,0 STARLINK-4040,1 53151U 22083V   23192.33021287  .00001914  00000-0  13829-3 0  9994,2 53151  53.2154 209.2144 0001034  73.6977 286.4129 15.08842097 55192,6917.874,95.437,540.454,539.024,0.0
53151.0,STARLINK-4040,PAYLOAD,2023-07-12 17:18:36,15.08840841,0.0001083,53.2156,202.9695,73.7909,286.3202,5.5282e-05,5.92e-06,0.0,0 STARLINK-4040,1 53151U 22083V   23193.72125583  .00000592  00000-0  55282-4 0  9993,2 53151  53.2156 202.9695 0001083  73.7909 286.3202 15.08840841 55405,6917.878,95.438,540.492,538.994,0.0
